{
  "norad_id": 49161,
  "name": "STARLINK-3080",
  "history": [
    {
      "epoch": "2026-03-28T20:10:35.969376Z",
      "apogee_km": 574.28780015346,
      "perigee_km": 569.8346691405568,
      "latitude_deg": 8.602839974597924e-06,
      "longitude_deg": 117.23896890444057,
      "height_km": 574.4988528138012,
      "semi_major_axis_km": 6950.198234647009,
      "eccentricity": 0.00032036,
      "inclination_deg": 69.9991,
      "raan_deg": 246.1442,
      "arg_perigee_deg": 269.7419,
      "mean_anomaly_deg": 90.3373,
      "mean_motion_rev_day": 14.98328272
    },
    {
      "epoch": "2026-03-29T04:11:16.191744Z",
      "apogee_km": 574.2843657683807,
      "perigee_km": 569.8431874721191,
      "latitude_deg": 9.40006458119551e-06,
      "longitude_deg": -4.0990311598517115,
      "height_km": 574.505803316797,
      "semi_major_axis_km": 6950.20077662025,
      "eccentricity": 0.0003195,
      "inclination_deg": 69.9993,
      "raan_deg": 245.3028,
      "arg_perigee_deg": 269.6276,
      "mean_anomaly_deg": 90.4517,
      "mean_motion_rev_day": 14.9832745
    },
    {
      "epoch": "2026-03-29T04:11:16.192608Z",
      "apogee_km": 574.2841572623565,
      "perigee_km": 569.8433959781432,
      "latitude_deg": 6.149405863468338e-06,
      "longitude_deg": -4.099035946433688,
      "height_km": 574.5058019616714,
      "semi_major_axis_km": 6950.20077662025,
      "eccentricity": 0.00031947,
      "inclination_deg": 69.9993,
      "raan_deg": 245.3028,
      "arg_perigee_deg": 269.6276,
      "mean_anomaly_deg": 90.4517,
      "mean_motion_rev_day": 14.9832745
    },
    {
      "epoch": "2026-03-30T13:50:05.070912Z",
      "apogee_km": 574.2775307032161,
      "perigee_km": 569.8059247133833,
      "latitude_deg": -3.674700692655004e-05,
      "longitude_deg": -153.71933950792254,
      "height_km": 574.4782388724226,
      "semi_major_axis_km": 6950.178727708299,
      "eccentricity": 0.00032169,
      "inclination_deg": 69.9993,
      "raan_deg": 241.768,
      "arg_perigee_deg": 269.7723,
      "mean_anomaly_deg": 90.3067,
      "mean_motion_rev_day": 14.9833458
    },
    {
      "epoch": "2026-03-30T20:14:37.098816Z",
      "apogee_km": 574.2616924573194,
      "perigee_km": 569.809411920387,
      "latitude_deg": 1.7321403490253678e-06,
      "longitude_deg": 109.21062109754625,
      "height_km": 574.4711243876278,
      "semi_major_axis_km": 6950.172552188853,
      "eccentricity": 0.0003203,
      "inclination_deg": 69.9993,
      "raan_deg": 241.0946,
      "arg_perigee_deg": 269.7951,
      "mean_anomaly_deg": 90.2841,
      "mean_motion_rev_day": 14.98336577
    },
    {
      "epoch": "2026-03-31T09:03:41.749056Z",
      "apogee_km": 574.2227079332442,
      "perigee_km": 569.8567459169244,
      "latitude_deg": -9.356392307712012e-06,
      "longitude_deg": -84.93167305162298,
      "height_km": 574.4756092708675,
      "semi_major_axis_km": 6950.176726925084,
      "eccentricity": 0.00031409,
      "inclination_deg": 69.9995,
      "raan_deg": 239.7481,
      "arg_perigee_deg": 269.7817,
      "mean_anomaly_deg": 90.2982,
      "mean_motion_rev_day": 14.98335227
    },
    {
      "epoch": "2026-04-01T15:30:17.641728Z",
      "apogee_km": 574.3327993959283,
      "perigee_km": 569.9124342796185,
      "latitude_deg": 2.276126066353776e-06,
      "longitude_deg": 173.969617980197,
      "height_km": 574.3554321477443,
      "semi_major_axis_km": 6950.259616837773,
      "eccentricity": 0.000318,
      "inclination_deg": 70.0,
      "raan_deg": 236.5492,
      "arg_perigee_deg": 275.0552,
      "mean_anomaly_deg": 85.0244,
      "mean_motion_rev_day": 14.98308423
    }
  ]
}